[{"OBJECT_NAME":"TRANSPORTER-10 OBJECT AG","OBJECT_ID":"2024-043AG","EPOCH":"2026-03-09T22:12:45.387648","MEAN_MOTION":15.30759727,"ECCENTRICITY":0.00093005,"INCLINATION":97.5471,"RA_OF_ASC_NODE":205.7101,"ARG_OF_PERICENTER":226.5958,"MEAN_ANOMALY":133.4509,"EPHEMERIS_TYPE":0,"CLASSIFICATION_TYPE":"U","NORAD_CAT_ID":59128,"ELEMENT_SET_NO":999,"REV_AT_EPOCH":11192,"BSTAR":0.00032170115,"MEAN_MOTION_DOT":9.498e-5,"MEAN_MOTION_DDOT":0},{"OBJECT_NAME":"STARLINK-31594","OBJECT_ID":"2024-057N","EPOCH":"2026-03-09T09:30:58.688640","MEAN_MOTION":15.2760153,"ECCENTRICITY":0.00032858,"INCLINATION":43.0042,"RA_OF_ASC_NODE":200.0261,"ARG_OF_PERICENTER":297.6612,"MEAN_ANOMALY":62.3906,"EPHEMERIS_TYPE":0,"CLASSIFICATION_TYPE":"U","NORAD_CAT_ID":59332,"ELEMENT_SET_NO":999,"REV_AT_EPOCH":10966,"BSTAR":-0.00024083857,"MEAN_MOTION_DOT":-6.89e-5,"MEAN_MOTION_DDOT":0}]
